MEAN_MOTION;ECCENTRICITY;INCLINATION;RA_OF_ASC_NODE;ARG_OF_PERICENTER;MEAN_ANOMALY;BSTAR;MEAN_MOTION_DOT;MEAN_MOTION_DDOT;TYPE
14.38840644;0.0008772;45.0159;86.6216;246.4797;113.5131;6.6455E-5;6.4E-7;0;Orbcomm
14.38840678;0.0008777;45.0159;86.292;246.795;113.1974;6.748E-5;6.7E-7;0;Orbcomm
14.38840925;0.0008786;45.0159;83.6554;249.3501;110.6406;6.9092E-5;7.2E-7;0;Orbcomm
14.38841231;0.0008805;45.016;80.3595;252.5343;107.4544;6.893E-5;7.1E-7;0;Orbcomm
14.38841455;0.0008806;45.016;78.7118;254.149;105.8388;7.1762E-5;8.0E-7;0;Orbcomm
14.38841777;0.0008819;45.0162;75.416;257.333;102.6533;7.0706E-5;7.7E-7;0;Orbcomm
14.38841935;0.0008814;45.0162;74.0979;258.6629;101.323;7.157E-5;8.0E-7;0;Orbcomm
14.38842146;0.0008824;45.0163;72.1204;260.5803;99.4048;7.1955E-5;8.1E-7;0;Orbcomm
14.38842385;0.0008817;45.0164;69.4839;263.15;96.8345;7.1207E-5;7.8E-7;0;Orbcomm
14.38842743;0.0008821;45.0165;65.5291;266.9154;93.0685;7.1164E-5;7.8E-7;0;Orbcomm
14.3884304;0.0008816;45.0166;61.9038;270.4701;89.5137;7.0605E-5;7.7E-7;0;Orbcomm
14.38843345;0.0008808;45.0167;57.6194;274.5903;85.3939;6.9092E-5;7.2E-7;0;Orbcomm
14.38843352;0.0008794;45.0167;56.9603;275.2589;84.7257;6.6869E-5;6.5E-7;0;Orbcomm
14.38843466;0.000879;45.0167;55.3126;276.8289;83.156;6.5958E-5;6.2E-7;0;Orbcomm
14.38843674;0.000876;45.0168;51.6872;280.3492;79.6369;5.9985E-5;4.4E-7;0;Orbcomm
14.38843902;0.0008751;45.0169;48.3916;283.5694;76.418;5.6207E-5;3.2E-7;0;Orbcomm
14.3884408;0.0008726;45.0169;46.0847;285.8393;74.1493;5.5075E-5;2.8E-7;0;Orbcomm
14.3884426;0.0008714;45.017;43.7777;288.0721;71.9178;5.5596E-5;3.0E-7;0;Orbcomm
14.38844722;0.0008668;45.0172;38.8342;292.8552;67.1381;6.21E-5;5.0E-7;0;Orbcomm
14.38845016;0.0008637;45.0173;35.2091;296.4312;63.565;6.4313E-5;5.7E-7;0;Orbcomm
14.38845233;0.00086;45.0174;32.5727;298.9956;61.003;6.7221E-5;6.6E-7;0;Orbcomm
14.38845286;0.0008595;45.0174;32.2432;299.3356;60.6633;6.8469E-5;7.0E-7;0;Orbcomm
14.38845521;0.0008567;45.0174;29.2771;302.2192;57.7826;6.7566E-5;6.7E-7;0;Orbcomm
14.38845658;0.0008543;45.0175;27.6294;303.8723;56.1313;6.7451E-5;6.7E-7;0;Orbcomm
14.3884604;0.0008497;45.0175;24.3338;307.0864;52.9208;6.9874E-5;7.4E-7;0;Orbcomm
14.3884619;0.0008474;45.0176;23.0157;308.4565;51.5523;7.1128E-5;7.8E-7;0;Orbcomm
14.38846481;0.0008435;45.0176;20.0497;311.3652;48.6471;7.0212E-5;7.5E-7;0;Orbcomm
14.38846971;0.0008351;45.0176;15.1064;316.4065;43.6123;7.1213E-5;7.8E-7;0;Orbcomm
14.38847081;0.0008337;45.0177;13.7883;317.6419;42.3785;7.1418E-5;7.9E-7;0;Orbcomm
14.38847115;0.0008332;45.0176;13.4588;317.9845;42.0364;7.1631E-5;8.0E-7;0;Orbcomm
14.38847524;0.0008262;45.0176;8.845;322.6047;37.4226;7.3577E-5;8.6E-7;0;Orbcomm
14.38847816;0.0008203;45.0176;5.5494;325.9167;34.1155;7.4068E-5;8.7E-7;0;Orbcomm
14.38848185;0.0008099;45.0175;0.606;330.9237;29.116;7.0431E-5;7.6E-7;0;Orbcomm
14.38848601;0.0008026;45.0175;356.3217;335.3307;24.7157;6.948E-5;7.3E-7;0;Orbcomm
14.38848627;0.0008014;45.0175;355.9922;335.6738;24.3731;6.9241E-5;7.2E-7;0;Orbcomm
14.38849161;0.0007927;45.0174;351.3783;340.4296;19.6248;7.2616E-5;8.3E-7;0;Orbcomm
14.3884923;0.0007919;45.0174;350.7193;341.1339;18.9215;7.3392E-5;8.5E-7;0;Orbcomm
14.38849562;0.0007868;45.0174;348.0827;343.8282;16.2314;7.7283E-5;9.7E-7;0;Orbcomm
14.38849835;0.0007814;45.0174;346.4349;345.6952;14.3675;8.217E-5;1.12E-6;0;Orbcomm
14.38849972;0.0007799;45.0174;345.4463;346.7969;13.2674;8.4551E-5;1.2E-6;0;Orbcomm
14.38850241;0.0007763;45.0173;343.1394;349.1584;10.9097;8.7355E-5;1.28E-6;0;Orbcomm
14.38850488;0.0007728;45.0173;341.8211;350.5492;9.521;9.1587E-5;1.42E-6;0;Orbcomm
14.38851092;0.0007631;45.0172;337.2074;355.4801;4.5978;9.4847E-5;1.52E-6;0;Orbcomm
14.38851129;0.0007624;45.0172;336.8779;355.8458;4.2326;9.4916E-5;1.52E-6;0;Orbcomm
14.38851662;0.0007543;45.017;332.264;0.8192;359.2668;9.0999E-5;1.4E-6;0;Orbcomm
14.38851743;0.0007534;45.017;331.6049;1.5481;358.539;9.0649E-5;1.39E-6;0;Orbcomm
14.38852286;0.0007452;45.0169;327.6502;5.8461;354.2473;9.0528E-5;1.38E-6;0;Orbcomm
14.38852905;0.0007363;45.0167;322.7067;11.2632;348.838;9.0662E-5;1.39E-6;0;Orbcomm
14.38852905;0.0007363;45.0167;322.7067;11.2632;348.838;9.0662E-5;1.39E-6;0;Orbcomm
14.38853424;0.0007271;45.0166;318.4223;15.9916;344.1161;9.3163E-5;1.46E-6;0;Orbcomm
14.38853531;0.0007261;45.0165;317.4336;17.0746;343.0346;9.3509E-5;1.48E-6;0;Orbcomm
14.38853894;0.000719;45.0164;314.1378;20.8152;339.2989;9.3805E-5;1.48E-6;0;Orbcomm
14.38854389;0.000708;45.0162;308.8646;26.9009;333.2205;8.9263E-5;1.34E-6;0;Orbcomm
14.3885483;0.0006966;45.0162;303.9208;32.71;327.4179;8.0784E-5;1.08E-6;0;Orbcomm
14.38854877;0.0006957;45.0161;303.5912;33.1407;326.9877;8.084E-5;1.08E-6;0;Orbcomm
14.38855438;0.0006878;45.016;296.0109;41.8216;318.3157;6.921E-5;7.2E-7;0;Orbcomm
14.38855616;0.000684;45.0161;294.3632;43.9988;316.1405;6.9121E-5;7.2E-7;0;Orbcomm
14.38855959;0.0006769;45.0161;289.7492;49.4295;310.7143;6.702E-5;6.5E-7;0;Orbcomm
14.38856154;0.0006723;45.016;286.4534;53.2803;306.8662;6.3709E-5;5.5E-7;0;Orbcomm
14.38856474;0.0006648;45.0159;282.1689;58.6389;301.5109;6.0615E-5;4.5E-7;0;Orbcomm
14.38856597;0.000664;45.0159;280.1916;60.9314;299.2199;5.825E-5;3.8E-7;0;Orbcomm
14.38856813;0.0006597;45.0159;277.2253;64.5971;295.556;5.5499E-5;2.9E-7;0;Orbcomm
14.38856961;0.0006585;45.0158;275.5775;66.6187;293.5353;5.5506E-5;2.9E-7;0;Orbcomm
14.38857389;0.0006541;45.0158;270.9634;72.2427;287.9135;5.7666E-5;3.6E-7;0;Orbcomm
14.38857429;0.0006542;45.0158;270.6339;72.6309;287.5254;5.8318E-5;3.8E-7;0;Orbcomm
14.38857695;0.0006508;45.0158;267.6676;76.3571;283.8002;6.0654E-5;4.5E-7;0;Orbcomm
14.38858094;0.0006478;45.0157;263.0535;82.0751;278.0833;6.5825E-5;6.2E-7;0;Orbcomm
14.38858186;0.0006476;45.0158;262.0649;83.2605;276.898;6.7273E-5;6.6E-7;0;Orbcomm
14.38858515;0.000646;45.0157;258.769;87.2145;272.9443;7.2069E-5;8.1E-7;0;Orbcomm
14.38858885;0.0006449;45.0158;254.155;92.906;267.2527;6.9718E-5;7.4E-7;0;Orbcomm
14.3885895;0.000645;45.0158;253.8254;93.3182;266.8405;7.0355E-5;7.6E-7;0;Orbcomm
14.3885941;0.0006445;45.0158;248.8818;99.4785;260.6793;6.6963E-5;6.5E-7;0;Orbcomm
14.3885959;0.0006446;45.0158;247.2341;101.4848;258.6725;6.6942E-5;6.5E-7;0;Orbcomm
14.38859946;0.0006453;45.0159;242.6201;107.1574;252.9982;6.3528E-5;5.4E-7;0;Orbcomm
14.38860229;0.000646;45.0159;238.0062;112.9492;247.2039;6.0277E-5;4.4E-7;0;Orbcomm
14.38860336;0.0006461;45.0159;236.3583;114.9265;245.2256;5.9145E-5;4.1E-7;0;Orbcomm
14.38860485;0.0006484;45.0158;233.0628;118.9881;241.1618;5.5584E-5;3.0E-7;0;Orbcomm
14.38860572;0.0006494;45.0158;231.4149;121.0237;239.125;5.4356E-5;2.6E-7;0;Orbcomm
14.38860645;0.0006506;45.0158;230.0966;122.6963;237.4514;5.2295E-5;2.0E-7;0;Orbcomm
14.38861023;0.0006542;45.0157;225.1531;128.6517;231.4918;5.1122E-5;1.6E-7;0;Orbcomm
14.38861552;0.0006583;45.0156;220.5391;134.206;225.933;5.9034E-5;4.1E-7;0;Orbcomm
14.3886185;0.0006612;45.0155;216.9138;138.532;221.6031;6.1293E-5;4.8E-7;0;Orbcomm
14.3886203;0.0006631;45.0156;215.5956;140.0683;220.0654;6.4671E-5;5.8E-7;0;Orbcomm
14.38862492;0.0006678;45.0155;210.9816;145.5276;214.6007;7.1967E-5;8.1E-7;0;Orbcomm
14.38862572;0.0006691;45.0155;210.3225;146.2579;213.8696;7.4189E-5;8.8E-7;0;Orbcomm
14.38862644;0.0006702;45.0154;209.6633;147.0369;213.0899;7.4824E-5;9.0E-7;0;Orbcomm
14.38862966;0.0006748;45.0154;206.038;151.2978;208.8243;7.5724E-5;9.2E-7;0;Orbcomm
14.38863058;0.0006765;45.0154;205.0493;152.4541;207.6667;7.5412E-5;9.1E-7;0;Orbcomm
14.38863525;0.0006826;45.0153;200.4353;157.7701;202.3445;7.4351E-5;8.8E-7;0;Orbcomm
14.38863904;0.0006889;45.0153;195.8214;162.9822;197.1259;6.8063E-5;6.9E-7;0;Orbcomm
14.3886413;0.0006926;45.0153;193.1847;165.9702;194.134;6.575E-5;6.1E-7;0;Orbcomm
14.38864573;0.0006995;45.0152;188.2413;171.4591;188.6378;6.3802E-5;5.5E-7;0;Orbcomm
14.388652;0.0007079;45.015;182.3091;177.9743;182.1135;6.9389E-5;7.3E-7;0;Orbcomm
14.38865259;0.000709;45.015;181.6499;178.6772;181.4096;6.9036E-5;7.2E-7;0;Orbcomm
14.38865704;0.0007156;45.0149;177.3654;183.328;176.7522;7.0653E-5;7.7E-7;0;Orbcomm
14.38865738;0.0007161;45.0148;177.0359;183.6767;176.403;7.0459E-5;7.6E-7;0;Orbcomm
14.38866372;0.0007226;45.0147;172.7514;188.2569;171.8161;7.9374E-5;1.04E-6;0;Orbcomm
14.38866407;0.0007232;45.0147;172.4218;188.5979;171.4747;7.9016E-5;1.03E-6;0;Orbcomm
14.38866521;0.0007265;45.0147;170.1146;191.0798;168.9891;7.2254E-5;8.2E-7;0;Orbcomm
14.38866748;0.0007296;45.0146;167.8077;193.479;166.5865;7.1533E-5;8.0E-7;0;Orbcomm
14.38867099;0.0007344;45.0146;164.8413;196.5963;163.4646;7.4632E-5;8.9E-7;0;Orbcomm
14.38867572;0.0007357;45.0146;163.1936;198.28;161.7785;9.235E-5;1.44E-6;0;Orbcomm
14.38867789;0.0007422;45.0146;158.909;202.7175;157.3346;8.1261E-5;1.1E-6;0;Orbcomm
14.38867861;0.0007431;45.0146;158.2498;203.3922;156.6589;8.1275E-5;1.1E-6;0;Orbcomm
14.38868328;0.00075;45.0146;153.6357;208.0625;151.9821;8.1057E-5;1.09E-6;0;Orbcomm
14.38868801;0.0007557;45.0147;149.0216;212.7151;147.323;7.7197E-5;9.7E-7;0;Orbcomm
14.38869082;0.0007603;45.0148;146.0552;215.6713;144.3628;7.2317E-5;8.2E-7;0;Orbcomm
14.38869242;0.0007616;45.0148;144.4074;217.2964;142.7356;7.0107E-5;7.5E-7;0;Orbcomm
14.38869606;0.0007661;45.0149;139.7934;221.8846;138.1417;6.2383E-5;5.1E-7;0;Orbcomm
14.38869987;0.0007708;45.0149;135.1793;226.4062;133.6147;5.9752E-5;4.3E-7;0;Orbcomm
14.38870171;0.0007743;45.015;131.8834;229.6193;130.398;5.544E-5;3.0E-7;0;Orbcomm
14.38870412;0.0007775;45.015;127.9284;233.4742;126.5391;5.4258E-5;2.6E-7;0;Orbcomm
14.38870522;0.0007771;45.015;125.951;235.3731;124.6385;5.28E-5;2.1E-7;0;Orbcomm
14.38870835;0.0007791;45.0151;121.0073;240.0994;119.9081;4.9358E-5;1.1E-7;0;Orbcomm
14.38871275;0.000782;45.0154;114.086;246.6963;113.3063;4.7481E-5;5.0E-8;0;Orbcomm
14.38871405;0.0007823;45.0155;111.779;248.8474;111.1539;4.6777E-5;3.0E-8;0;Orbcomm
14.38871701;0.0007843;45.0157;108.1537;252.2583;107.741;5.0566E-5;1.4E-7;0;Orbcomm
14.38871985;0.000784;45.0158;104.8579;255.3871;104.6108;5.5938E-5;3.1E-7;0;Orbcomm
14.38872141;0.0007842;45.0159;103.2101;256.8877;103.1097;5.8006E-5;3.8E-7;0;Orbcomm
